ERS-1                   
1 21574U 91050A   26076.06548758  .00000268  00000+0  10044-3 0  9995
2 21574  98.7875  94.4854 0032032 178.4627 181.6664 14.39455000816798
ARIANE 40 R/B           
1 21610U 91050F   26076.16823693  .00000275  00000+0  94819-4 0  9992
2 21610  98.1996 128.1236 0004126  64.8706 295.2912 14.42899144820074
INTERCOSMOS 25          
1 21819U 91086A   26076.08732308  .00001715  00000+0  32888-3 0  9992
2 21819  82.6042 305.5372 1486833 100.9968 276.1416 12.12026893497580
SL-8 R/B                
1 21876U 92008B   26076.30697852  .00000010  00000+0 -55746-5 0  9997
2 21876  82.9222 262.1101 0035808 112.7001  60.3171 13.75969723710468
SL-8 R/B                
1 21938U 92020B   26076.18342157  .00000056  00000+0  42410-4 0  9993
2 21938  82.9324 148.1983 0027535 276.8905 139.5800 13.75550095702168
USA 81                  
1 21949U 92023A   26076.20343270  .00000175  00000+0  57506-4 0  9992
2 21949  85.0070 127.1060 0002262  71.9086 288.2353 14.32370461 95867
COSMOS 2219             
1 22219U 92076A   26076.16070333 -.00000079  00000+0 -16717-4 0  9997
2 22219  71.0641   2.4515 0018544 196.6805 163.3710 14.14093639719436
SL-16 R/B               
1 22220U 92076B   26075.99065755  .00000126  00000+0  86427-4 0  9997
2 22220  71.0006 172.9956 0010572  82.8632  92.0301 14.16859538722867
COSMOS 2221             
1 22236U 92080A   26076.26135681  .00001788  00000+0  15593-3 0  9996
2 22236  82.5002 271.8263 0014675 161.9922 198.1823 14.96231037781921
SL-16 R/B               
1 22285U 92093B   26076.15987136  .00000097  00000+0  74037-4 0  9993
2 22285  71.0240 348.5856 0006276 286.1112  73.9320 14.15447398714211
COSMOS 2228             
1 22286U 92094A   26076.27267558  .00001867  00000+0  15869-3 0  9990
2 22286  82.5163 230.0491 0016561 276.9740  82.9598 14.97229583777192
SL-16 R/B               
1 22566U 93016B   26076.05966123 -.00000225  00000+0 -91207-4 0  9996
2 22566  71.0083 199.7026 0012243 304.5307  55.4660 14.15308530703219
